{"fetched_at":"2026-03-29T16:36:15Z","count":15609,"tles":[{"name":"STARLINK-32959","line1":"1 63569U 25076A   26087.64143918  .00032967  00000+0  12019-2 0  9999","line2":"2 63569  42.9996 218.6443 0000516 237.2712 122.8090 15.27587640 54684","category":"Starlink"}]}