{
  "norad_id": 63569,
  "name": "STARLINK-32959",
  "history": [
    {
      "epoch": "2026-03-28T15:23:40.345152Z",
      "apogee_km": 483.3802552486359,
      "perigee_km": 482.67218320441225,
      "latitude_deg": 7.582229484514189e-06,
      "longitude_deg": 161.66723615511066,
      "height_km": 482.993398178208,
      "semi_major_axis_km": 6861.163219226524,
      "eccentricity": 5.16e-05,
      "inclination_deg": 42.9996,
      "raan_deg": 218.6443,
      "arg_perigee_deg": 237.2712,
      "mean_anomaly_deg": 122.809,
      "mean_motion_rev_day": 15.2758764
    }
  ]
}